start=new Date('2022-09-14T00:00:00.000Z').valueOf();
sats=[{"APOAPSIS":"540.858","MEAN_MOTION_DOT":"-0.00056182","NORAD_CAT_ID":"52486","COUNTRY_CODE":"US","OBJECT_ID":"2022-049AM","SITE":"AFETR","TLE_LINE1":"1 52486U 22049AM  22256.91667824 -.00056182  00000-0 -35390-2 0  9998","CENTER_NAME":"EARTH","MEAN_MOTION_DDOT":"0.0000000000000","EPOCH":"2022-09-13T22:00:00.999936","GP_ID":"212538323","EPHEMERIS_TYPE":"0","TLE_LINE2":"2 52486  53.2192  12.8111 0001635  51.4065 145.8326 15.08846080  1302","LAUNCH_DATE":"2022-05-06","INCLINATION":"53.2192","FILE":"3573088","OBJECT_TYPE":"PAYLOAD","PERIOD":"95.437","RA_OF_ASC_NODE":"12.8111","CLASSIFICATION_TYPE":"U","MEAN_ANOMALY":"145.8326","MEAN_ELEMENT_THEORY":"SGP4","RCS_SIZE":"MEDIUM","PERIAPSIS":"538.596","REV_AT_EPOCH":"130","ELEMENT_SET_NO":"999","ARG_OF_PERICENTER":"51.4065","ECCENTRICITY":"0.00016350","TIME_SYSTEM":"UTC","DECAY_DATE":null,"SEMIMAJOR_AXIS":"6917.862","OBJECT_NAME":"STARLINK-3918","BSTAR":"-0.00353900000000","REF_FRAME":"TEME","MEAN_MOTION":"15.08846080"},{"RCS_SIZE":"LARGE","MEAN_ELEMENT_THEORY":"SGP4","BSTAR":"-0.00401020000000","SEMIMAJOR_AXIS":"6917.853","OBJECT_NAME":"STARLINK-3902","REF_FRAME":"TEME","DECAY_DATE":null,"TIME_SYSTEM":"UTC","MEAN_MOTION":"15.08848987","PERIAPSIS":"538.567","ARG_OF_PERICENTER":"45.0176","ELEMENT_SET_NO":"999","ECCENTRICITY":"0.00016640","REV_AT_EPOCH":"130","OBJECT_TYPE":"PAYLOAD","FILE":"3573088","PERIOD":"95.437","LAUNCH_DATE":"2022-05-06","INCLINATION":"53.2169","CLASSIFICATION_TYPE":"U","MEAN_ANOMALY":"1.9963","RA_OF_ASC_NODE":"2.8160","GP_ID":"212537594","EPHEMERIS_TYPE":"0","MEAN_MOTION_DDOT":"0.0000000000000","EPOCH":"2022-09-13T22:00:00.999936","CENTER_NAME":"EARTH","TLE_LINE2":"2 52487  53.2169   2.8160 0001664  45.0176   1.9963 15.08848987  1301","COUNTRY_CODE":"US","MEAN_MOTION_DOT":"-0.00063563","APOAPSIS":"540.869","NORAD_CAT_ID":"52487","TLE_LINE1":"1 52487U 22049AN  22256.91667824 -.00063563  00000-0 -40102-2 0  9997","SITE":"AFETR","OBJECT_ID":"2022-049AN"},{"MEAN_MOTION_DOT":"-0.00045552","APOAPSIS":"540.826","NORAD_CAT_ID":"52488","COUNTRY_CODE":"US","OBJECT_ID":"2022-049AP","SITE":"AFETR","TLE_LINE1":"1 52488U 22049AP  22256.91667824 -.00045552  00000-0 -28622-2 0  9999","CENTER_NAME":"EARTH","MEAN_MOTION_DDOT":"0.0000000000000","EPOCH":"2022-09-13T22:00:00.999936","GP_ID":"212537753","EPHEMERIS_TYPE":"0","TLE_LINE2":"2 52488  53.2200  12.8127 0001564  43.8802 173.3336 15.08840298  1308","LAUNCH_DATE":"2022-05-06","INCLINATION":"53.2200","OBJECT_TYPE":"PAYLOAD","FILE":"3573088","PERIOD":"95.438","RA_OF_ASC_NODE":"12.8127","CLASSIFICATION_TYPE":"U","MEAN_ANOMALY":"173.3336","MEAN_ELEMENT_THEORY":"SGP4","RCS_SIZE":"LARGE","PERIAPSIS":"538.663","REV_AT_EPOCH":"130","ARG_OF_PERICENTER":"43.8802","ELEMENT_SET_NO":"999","ECCENTRICITY":"0.00015640","DECAY_DATE":null,"TIME_SYSTEM":"UTC","OBJECT_NAME":"STARLINK-3892","SEMIMAJOR_AXIS":"6917.879","BSTAR":"-0.00286220000000","REF_FRAME":"TEME","MEAN_MOTION":"15.08840298"},{"MEAN_ELEMENT_THEORY":"SGP4","RCS_SIZE":"LARGE","PERIAPSIS":"538.530","REV_AT_EPOCH":"130","ECCENTRICITY":"0.00017290","ELEMENT_SET_NO":"999","ARG_OF_PERICENTER":"46.4775","DECAY_DATE":null,"TIME_SYSTEM":"UTC","SEMIMAJOR_AXIS":"6917.861","BSTAR":"-0.00365400000000","REF_FRAME":"TEME","OBJECT_NAME":"STARLINK-3923","MEAN_MOTION":"15.08846244","LAUNCH_DATE":"2022-05-06","INCLINATION":"53.2204","OBJECT_TYPE":"PAYLOAD","FILE":"3573088","PERIOD":"95.437","RA_OF_ASC_NODE":"12.8162","CLASSIFICATION_TYPE":"U","MEAN_ANOMALY":"130.7513","CENTER_NAME":"EARTH","MEAN_MOTION_DDOT":"0.0000000000000","EPOCH":"2022-09-13T22:00:00.999936","GP_ID":"212538482","EPHEMERIS_TYPE":"0","TLE_LINE2":"2 52489  53.2204  12.8162 0001729  46.4775 130.7513 15.08846244  1304","APOAPSIS":"540.922","MEAN_MOTION_DOT":"-0.00057984","NORAD_CAT_ID":"52489","COUNTRY_CODE":"US","OBJECT_ID":"2022-049AQ","SITE":"AFETR","TLE_LINE1":"1 52489U 22049AQ  22256.91667824 -.00057984  00000-0 -36540-2 0  9990"},{"RCS_SIZE":"LARGE","MEAN_ELEMENT_THEORY":"SGP4","TIME_SYSTEM":"UTC","DECAY_DATE":null,"OBJECT_NAME":"STARLINK-3914","SEMIMAJOR_AXIS":"6917.778","BSTAR":"-0.00725840000000","REF_FRAME":"TEME","MEAN_MOTION":"15.08873546","PERIAPSIS":"538.413","REV_AT_EPOCH":"130","ECCENTRICITY":"0.00017780","ELEMENT_SET_NO":"999","ARG_OF_PERICENTER":"45.9497","OBJECT_TYPE":"PAYLOAD","FILE":"3573088","PERIOD":"95.435","LAUNCH_DATE":"2022-05-06","INCLINATION":"53.2184","CLASSIFICATION_TYPE":"U","MEAN_ANOMALY":"86.2662","RA_OF_ASC_NODE":"2.8142","GP_ID":"212537909","EPHEMERIS_TYPE":"0","CENTER_NAME":"EARTH","MEAN_MOTION_DDOT":"0.0000000000000","EPOCH":"2022-09-13T22:00:00.999936","TLE_LINE2":"2 52490  53.2184   2.8142 0001778  45.9497  86.2662 15.08873546  1304","COUNTRY_CODE":"US","APOAPSIS":"540.873","MEAN_MOTION_DOT":"-0.00114087","NORAD_CAT_ID":"52490","SITE":"AFETR","TLE_LINE1":"1 52490U 22049AR  22256.91667824 -.00114087  00000-0 -72584-2 0  9998","OBJECT_ID":"2022-049AR"},{"LAUNCH_DATE":"2022-05-06","INCLINATION":"53.2185","OBJECT_TYPE":"PAYLOAD","FILE":"3573088","PERIOD":"95.437","RA_OF_ASC_NODE":"2.8123","CLASSIFICATION_TYPE":"U","MEAN_ANOMALY":"47.6846","MEAN_ELEMENT_THEORY":"SGP4","RCS_SIZE":"LARGE","PERIAPSIS":"538.525","REV_AT_EPOCH":"130","ECCENTRICITY":"0.00017250","ELEMENT_SET_NO":"999","ARG_OF_PERICENTER":"44.5189","DECAY_DATE":null,"TIME_SYSTEM":"UTC","SEMIMAJOR_AXIS":"6917.854","OBJECT_NAME":"STARLINK-3908","BSTAR":"-0.00398440000000","REF_FRAME":"TEME","MEAN_MOTION":"15.08848722","MEAN_MOTION_DOT":"-0.00063160","APOAPSIS":"540.912","NORAD_CAT_ID":"52491","COUNTRY_CODE":"US","OBJECT_ID":"2022-049AS","TLE_LINE1":"1 52491U 22049AS  22256.91667824 -.00063160  00000-0 -39844-2 0  9996","SITE":"AFETR","CENTER_NAME":"EARTH","MEAN_MOTION_DDOT":"0.0000000000000","EPOCH":"2022-09-13T22:00:00.999936","GP_ID":"212538011","EPHEMERIS_TYPE":"0","TLE_LINE2":"2 52491  53.2185   2.8123 0001725  44.5189  47.6846 15.08848722  1303"},{"MEAN_ELEMENT_THEORY":"SGP4","RCS_SIZE":"LARGE","ELEMENT_SET_NO":"999","ARG_OF_PERICENTER":"46.1206","ECCENTRICITY":"0.00018470","REV_AT_EPOCH":"130","PERIAPSIS":"538.416","MEAN_MOTION":"15.08856789","SEMIMAJOR_AXIS":"6917.829","OBJECT_NAME":"STARLINK-3916","BSTAR":"-0.00503820000000","REF_FRAME":"TEME","DECAY_DATE":null,"TIME_SYSTEM":"UTC","INCLINATION":"53.2204","LAUNCH_DATE":"2022-05-06","PERIOD":"95.436","OBJECT_TYPE":"PAYLOAD","FILE":"3573088","RA_OF_ASC_NODE":"2.8171","MEAN_ANOMALY":"126.0916","CLASSIFICATION_TYPE":"U","EPOCH":"2022-09-13T22:00:00.999936","MEAN_MOTION_DDOT":"0.0000000000000","CENTER_NAME":"EARTH","EPHEMERIS_TYPE":"0","GP_ID":"212538169","TLE_LINE2":"2 52492  53.2204   2.8171 0001847  46.1206 126.0916 15.08856789  1304","NORAD_CAT_ID":"52492","MEAN_MOTION_DOT":"-0.00079623","APOAPSIS":"540.972","COUNTRY_CODE":"US","OBJECT_ID":"2022-049AT","TLE_LINE1":"1 52492U 22049AT  22256.91667824 -.00079623  00000-0 -50382-2 0  9998","SITE":"AFETR"},{"COUNTRY_CODE":"US","APOAPSIS":"540.878","MEAN_MOTION_DOT":"-0.00081536","NORAD_CAT_ID":"52493","SITE":"AFETR","TLE_LINE1":"1 52493U 22049AU  22256.91667824 -.00081536  00000-0 -51612-2 0  9992","OBJECT_ID":"2022-049AU","GP_ID":"212538699","EPHEMERIS_TYPE":"0","CENTER_NAME":"EARTH","MEAN_MOTION_DDOT":"0.0000000000000","EPOCH":"2022-09-13T22:00:00.999936","TLE_LINE2":"2 52493  53.2182   2.8135 0001707  44.8679  67.3487 15.08855906  1304","OBJECT_TYPE":"PAYLOAD","FILE":"3573088","PERIOD":"95.437","LAUNCH_DATE":"2022-05-06","INCLINATION":"53.2182","CLASSIFICATION_TYPE":"U","MEAN_ANOMALY":"67.3487","RA_OF_ASC_NODE":"2.8135","RCS_SIZE":"LARGE","MEAN_ELEMENT_THEORY":"SGP4","TIME_SYSTEM":"UTC","DECAY_DATE":null,"BSTAR":"-0.00516120000000","SEMIMAJOR_AXIS":"6917.832","REF_FRAME":"TEME","OBJECT_NAME":"STARLINK-3883","MEAN_MOTION":"15.08855906","PERIAPSIS":"538.516","REV_AT_EPOCH":"130","ARG_OF_PERICENTER":"44.8679","ELEMENT_SET_NO":"999","ECCENTRICITY":"0.00017070"},{"MEAN_MOTION_DDOT":"0.0000000000000","EPOCH":"2022-09-13T22:00:00.999936","CENTER_NAME":"EARTH","GP_ID":"212538324","EPHEMERIS_TYPE":"0","TLE_LINE2":"2 52494  53.2181   2.8181 0001802  38.9539 193.2348 15.08903748  1303","MEAN_MOTION_DOT":"-0.00167333","APOAPSIS":"540.797","NORAD_CAT_ID":"52494","COUNTRY_CODE":"US","OBJECT_ID":"2022-049AV","TLE_LINE1":"1 52494U 22049AV  22256.91667824 -.00167333  00000-0 -10725-1 0  9992","SITE":"AFETR","MEAN_ELEMENT_THEORY":"SGP4","RCS_SIZE":"LARGE","PERIAPSIS":"538.304","ELEMENT_SET_NO":"999","ARG_OF_PERICENTER":"38.9539","ECCENTRICITY":"0.00018020","REV_AT_EPOCH":"130","SEMIMAJOR_AXIS":"6917.686","REF_FRAME":"TEME","BSTAR":"-0.01072500000000","OBJECT_NAME":"STARLINK-3857","DECAY_DATE":null,"TIME_SYSTEM":"UTC","MEAN_MOTION":"15.08903748","LAUNCH_DATE":"2022-05-06","INCLINATION":"53.2181","FILE":"3573088","OBJECT_TYPE":"PAYLOAD","PERIOD":"95.434","RA_OF_ASC_NODE":"2.8181","CLASSIFICATION_TYPE":"U","MEAN_ANOMALY":"193.2348"},{"EPHEMERIS_TYPE":"0","GP_ID":"212537595","MEAN_MOTION_DDOT":"0.0000000000000","EPOCH":"2022-09-13T22:00:00.999936","CENTER_NAME":"EARTH","TLE_LINE2":"2 52495  53.2196   2.8127 0001818  44.5617 107.6385 15.08856502  1302","COUNTRY_CODE":"US","NORAD_CAT_ID":"52495","APOAPSIS":"540.953","MEAN_MOTION_DOT":"-0.00076483","TLE_LINE1":"1 52495U 22049AW  22256.91667824 -.00076483  00000-0 -48367-2 0  9992","SITE":"AFETR","OBJECT_ID":"2022-049AW","RCS_SIZE":"LARGE","MEAN_ELEMENT_THEORY":"SGP4","MEAN_MOTION":"15.08856502","SEMIMAJOR_AXIS":"6917.830","BSTAR":"-0.00483670000000","OBJECT_NAME":"STARLINK-3905","REF_FRAME":"TEME","DECAY_DATE":null,"TIME_SYSTEM":"UTC","ECCENTRICITY":"0.00018180","ELEMENT_SET_NO":"999","ARG_OF_PERICENTER":"44.5617","REV_AT_EPOCH":"130","PERIAPSIS":"538.437","PERIOD":"95.437","OBJECT_TYPE":"PAYLOAD","FILE":"3573088","INCLINATION":"53.2196","LAUNCH_DATE":"2022-05-06","MEAN_ANOMALY":"107.6385","CLASSIFICATION_TYPE":"U","RA_OF_ASC_NODE":"2.8127"}];
